SENTINEL-6              
1 46984U 20086A   24289.54667289 -.00000026  00000+0  15344-3 0  9997
2 46984  66.0422 321.2856 0007899 269.5873  90.4237 12.80929293182240
